HULIANWANG DIGUI-97     
1 66413U 25258B   26063.58931340 -.00000043  00000+0  17423-3 0  9999
2 66413  50.0019 311.0413 0000399  94.5855 265.5062 13.29332282 15813
HULIANWANG DIGUI-98     
1 66414U 25258C   26063.58093475 -.00000044  00000+0  17288-3 0  9998
2 66414  50.0056 311.0394 0000442 108.3127 251.7794 13.29333853 15812
HULIANWANG DIGUI-99     
1 66415U 25258D   26063.54754723 -.00000053  00000+0  15356-3 0  9999
2 66415  50.0054 310.8601 0000335  88.2603 271.8307 13.29331409 15802
HULIANWANG DIGUI-100    
1 66416U 25258E   26063.64776580 -.00000051  00000+0  15804-3 0  9992
2 66416  50.0057 310.7287 0000318  85.1247 274.9662 13.29334366 15832
HULIANWANG DIGUI-101    
1 66417U 25258F   26063.56424587 -.00000046  00000+0  16809-3 0  9991
2 66417  50.0008 310.8966 0000345  80.3411 279.7500 13.29332587 15820
HULIANWANG DIGUI-102    
1 66418U 25258G   26063.53915620 -.00000055  00000+0  14972-3 0  9991
2 66418  50.0021 310.7770 0000362 101.8871 258.2042 13.29334499 15812
HULIANWANG DIGUI-103    
1 66419U 25258H   26063.53082289 -.00000056  00000+0  14588-3 0  9992
2 66419  50.0015 310.7256 0000290  82.2514 277.8391 13.29333474 15817
HULIANWANG DIGUI-104    
1 66420U 25258J   26063.59766281 -.00000052  00000+0  15510-3 0  9993
2 66420  50.0032 310.4351 0000381 105.7524 254.3390 13.29332872 15814
HULIANWANG DIGUI-105    
1 66915U 25285A   26063.60156319 -.00000092  00000+0  69558-4 0  9995
2 66915  50.0045 161.3119 0000066 301.4672  58.6194 13.29331651 12145
HULIANWANG DIGUI-106    
1 66916U 25285B   26062.84187491 -.00628747  00000+0 -14167+1 0  9992
2 66916  50.0017 163.9826 0004174  31.7419 328.3704 13.29202558 12040
HULIANWANG DIGUI-107    
1 66917U 25285C   26063.58486142 -.00000106  00000+0  39618-4 0  9994
2 66917  50.0022 161.2075 0000033 353.6061   6.4811 13.29331149 12146
HULIANWANG DIGUI-108    
1 66918U 25285D   26063.57650022 -.00000090  00000+0  73062-4 0  9997
2 66918  50.0043 161.1808 0000034  29.8020 330.2854 13.29331638 12149
HULIANWANG DIGUI-109    
1 66919U 25285E   26063.56814752 -.00000081  00000+0  93760-4 0  9996
2 66919  50.0067 161.1571 0000015  54.0856 306.0018 13.29331419 12150
HULIANWANG DIGUI-110    
1 66920U 25285F   26063.55979927 -.00000103  00000+0  44495-4 0  9999
2 66920  50.0099 161.1394 0000026 347.1368  12.9503 13.29331058 12146
HULIANWANG DIGUI-111    
1 66921U 25285G   26063.62662354 -.00000088  00000+0  77503-4 0  9999
2 66921  50.0115 160.8396 0000014 327.3449  32.7423 13.29331029 12151
HULIANWANG DIGUI-112    
1 66922U 25285H   26063.61827145 -.00000055  00000+0  14935-3 0  9993
2 66922  50.0079 160.7687 0000044 337.1773  22.9098 13.29331490 12156
