[{"OBJECT_NAME":"HULIANWANG DIGUI-97","OBJECT_ID":"2025-258B","EPOCH":"2026-03-04T14:08:36.677760","MEAN_MOTION":13.29332282,"ECCENTRICITY":3.999e-5,"INCLINATION":50.0019,"RA_OF_ASC_NODE":311.0413,"ARG_OF_PERICENTER":94.5855,"MEAN_ANOMALY":265.5062,"EPHEMERIS_TYPE":0,"CLASSIFICATION_TYPE":"U","NORAD_CAT_ID":66413,"ELEMENT_SET_NO":999,"REV_AT_EPOCH":1581,"BSTAR":0.00017422995,"MEAN_MOTION_DOT":-4.3e-7,"MEAN_MOTION_DDOT":0},{"OBJECT_NAME":"HULIANWANG DIGUI-98","OBJECT_ID":"2025-258C","EPOCH":"2026-03-04T13:56:32.762400","MEAN_MOTION":13.29333853,"ECCENTRICITY":4.426e-5,"INCLINATION":50.0056,"RA_OF_ASC_NODE":311.0394,"ARG_OF_PERICENTER":108.3127,"MEAN_ANOMALY":251.7794,"EPHEMERIS_TYPE":0,"CLASSIFICATION_TYPE":"U","NORAD_CAT_ID":66414,"ELEMENT_SET_NO":999,"REV_AT_EPOCH":1581,"BSTAR":0.00017288379,"MEAN_MOTION_DOT":-4.4e-7,"MEAN_MOTION_DDOT":0},{"OBJECT_NAME":"HULIANWANG DIGUI-99","OBJECT_ID":"2025-258D","EPOCH":"2026-03-04T13:08:28.080672","MEAN_MOTION":13.29331409,"ECCENTRICITY":3.354e-5,"INCLINATION":50.0054,"RA_OF_ASC_NODE":310.8601,"ARG_OF_PERICENTER":88.2603,"MEAN_ANOMALY":271.8307,"EPHEMERIS_TYPE":0,"CLASSIFICATION_TYPE":"U","NORAD_CAT_ID":66415,"ELEMENT_SET_NO":999,"REV_AT_EPOCH":1580,"BSTAR":0.00015356231,"MEAN_MOTION_DOT":-5.3e-7,"MEAN_MOTION_DDOT":0},{"OBJECT_NAME":"HULIANWANG DIGUI-100","OBJECT_ID":"2025-258E","EPOCH":"2026-03-04T15:32:46.965120","MEAN_MOTION":13.29334366,"ECCENTRICITY":3.184e-5,"INCLINATION":50.0057,"RA_OF_ASC_NODE":310.7287,"ARG_OF_PERICENTER":85.1247,"MEAN_ANOMALY":274.9662,"EPHEMERIS_TYPE":0,"CLASSIFICATION_TYPE":"U","NORAD_CAT_ID":66416,"ELEMENT_SET_NO":999,"REV_AT_EPOCH":1583,"BSTAR":0.00015804255,"MEAN_MOTION_DOT":-5.1e-7,"MEAN_MOTION_DDOT":0},{"OBJECT_NAME":"HULIANWANG DIGUI-101","OBJECT_ID":"2025-258F","EPOCH":"2026-03-04T13:32:30.843168","MEAN_MOTION":13.29332587,"ECCENTRICITY":3.456e-5,"INCLINATION":50.0008,"RA_OF_ASC_NODE":310.8966,"ARG_OF_PERICENTER":80.3411,"MEAN_ANOMALY":279.75,"EPHEMERIS_TYPE":0,"CLASSIFICATION_TYPE":"U","NORAD_CAT_ID":66417,"ELEMENT_SET_NO":999,"REV_AT_EPOCH":1582,"BSTAR":0.00016808808,"MEAN_MOTION_DOT":-4.6e-7,"MEAN_MOTION_DDOT":0},{"OBJECT_NAME":"HULIANWANG DIGUI-102","OBJECT_ID":"2025-258G","EPOCH":"2026-03-04T12:56:23.095680","MEAN_MOTION":13.29334499,"ECCENTRICITY":3.62e-5,"INCLINATION":50.0021,"RA_OF_ASC_NODE":310.777,"ARG_OF_PERICENTER":101.8871,"MEAN_ANOMALY":258.2042,"EPHEMERIS_TYPE":0,"CLASSIFICATION_TYPE":"U","NORAD_CAT_ID":66418,"ELEMENT_SET_NO":999,"REV_AT_EPOCH":1581,"BSTAR":0.0001497199,"MEAN_MOTION_DOT":-5.5e-7,"MEAN_MOTION_DDOT":0},{"OBJECT_NAME":"HULIANWANG DIGUI-103","OBJECT_ID":"2025-258H","EPOCH":"2026-03-04T12:44:23.097696","MEAN_MOTION":13.29333474,"ECCENTRICITY":2.903e-5,"INCLINATION":50.0015,"RA_OF_ASC_NODE":310.7256,"ARG_OF_PERICENTER":82.2514,"MEAN_ANOMALY":277.8391,"EPHEMERIS_TYPE":0,"CLASSIFICATION_TYPE":"U","NORAD_CAT_ID":66419,"ELEMENT_SET_NO":999,"REV_AT_EPOCH":1581,"BSTAR":0.00014588413,"MEAN_MOTION_DOT":-5.6e-7,"MEAN_MOTION_DDOT":0},{"OBJECT_NAME":"HULIANWANG DIGUI-104","OBJECT_ID":"2025-258J","EPOCH":"2026-03-04T14:20:38.066784","MEAN_MOTION":13.29332872,"ECCENTRICITY":3.812e-5,"INCLINATION":50.0032,"RA_OF_ASC_NODE":310.4351,"ARG_OF_PERICENTER":105.7524,"MEAN_ANOMALY":254.339,"EPHEMERIS_TYPE":0,"CLASSIFICATION_TYPE":"U","NORAD_CAT_ID":66420,"ELEMENT_SET_NO":999,"REV_AT_EPOCH":1581,"BSTAR":0.00015509598,"MEAN_MOTION_DOT":-5.2e-7,"MEAN_MOTION_DDOT":0},{"OBJECT_NAME":"HULIANWANG DIGUI-105","OBJECT_ID":"2025-285A","EPOCH":"2026-03-04T14:26:15.059616","MEAN_MOTION":13.29331651,"ECCENTRICITY":6.65e-6,"INCLINATION":50.0045,"RA_OF_ASC_NODE":161.3119,"ARG_OF_PERICENTER":301.4672,"MEAN_ANOMALY":58.6194,"EPHEMERIS_TYPE":0,"CLASSIFICATION_TYPE":"U","NORAD_CAT_ID":66915,"ELEMENT_SET_NO":999,"REV_AT_EPOCH":1214,"BSTAR":6.9558404e-5,"MEAN_MOTION_DOT":-9.2e-7,"MEAN_MOTION_DDOT":0},{"OBJECT_NAME":"HULIANWANG DIGUI-106","OBJECT_ID":"2025-285B","EPOCH":"2026-03-03T20:12:17.992224","MEAN_MOTION":13.29202558,"ECCENTRICITY":0.00041746,"INCLINATION":50.0017,"RA_OF_ASC_NODE":163.9826,"ARG_OF_PERICENTER":31.7419,"MEAN_ANOMALY":328.3704,"EPHEMERIS_TYPE":0,"CLASSIFICATION_TYPE":"U","NORAD_CAT_ID":66916,"ELEMENT_SET_NO":999,"REV_AT_EPOCH":1204,"BSTAR":-1.4167408,"MEAN_MOTION_DOT":-0.00628747,"MEAN_MOTION_DDOT":0},{"OBJECT_NAME":"HULIANWANG DIGUI-107","OBJECT_ID":"2025-285C","EPOCH":"2026-03-04T14:02:12.026688","MEAN_MOTION":13.29331149,"ECCENTRICITY":3.38e-6,"INCLINATION":50.0022,"RA_OF_ASC_NODE":161.2075,"ARG_OF_PERICENTER":353.6061,"MEAN_ANOMALY":6.4811,"EPHEMERIS_TYPE":0,"CLASSIFICATION_TYPE":"U","NORAD_CAT_ID":66917,"ELEMENT_SET_NO":999,"REV_AT_EPOCH":1214,"BSTAR":3.9617918e-5,"MEAN_MOTION_DOT":-1.06e-6,"MEAN_MOTION_DDOT":0},{"OBJECT_NAME":"HULIANWANG DIGUI-108","OBJECT_ID":"2025-285D","EPOCH":"2026-03-04T13:50:09.619008","MEAN_MOTION":13.29331638,"ECCENTRICITY":3.42e-6,"INCLINATION":50.0043,"RA_OF_ASC_NODE":161.1808,"ARG_OF_PERICENTER":29.802,"MEAN_ANOMALY":330.2854,"EPHEMERIS_TYPE":0,"CLASSIFICATION_TYPE":"U","NORAD_CAT_ID":66918,"ELEMENT_SET_NO":999,"REV_AT_EPOCH":1214,"BSTAR":7.3061764e-5,"MEAN_MOTION_DOT":-9.0e-7,"MEAN_MOTION_DDOT":0},{"OBJECT_NAME":"HULIANWANG DIGUI-109","OBJECT_ID":"2025-285E","EPOCH":"2026-03-04T13:38:07.945728","MEAN_MOTION":13.29331419,"ECCENTRICITY":1.5e-6,"INCLINATION":50.0067,"RA_OF_ASC_NODE":161.1571,"ARG_OF_PERICENTER":54.0856,"MEAN_ANOMALY":306.0018,"EPHEMERIS_TYPE":0,"CLASSIFICATION_TYPE":"U","NORAD_CAT_ID":66919,"ELEMENT_SET_NO":999,"REV_AT_EPOCH":1215,"BSTAR":9.3760433e-5,"MEAN_MOTION_DOT":-8.1e-7,"MEAN_MOTION_DDOT":0},{"OBJECT_NAME":"HULIANWANG DIGUI-110","OBJECT_ID":"2025-285F","EPOCH":"2026-03-04T13:26:06.656928","MEAN_MOTION":13.29331058,"ECCENTRICITY":2.66e-6,"INCLINATION":50.0099,"RA_OF_ASC_NODE":161.1394,"ARG_OF_PERICENTER":347.1368,"MEAN_ANOMALY":12.9503,"EPHEMERIS_TYPE":0,"CLASSIFICATION_TYPE":"U","NORAD_CAT_ID":66920,"ELEMENT_SET_NO":999,"REV_AT_EPOCH":1214,"BSTAR":4.4495239e-5,"MEAN_MOTION_DOT":-1.03e-6,"MEAN_MOTION_DDOT":0},{"OBJECT_NAME":"HULIANWANG DIGUI-111","OBJECT_ID":"2025-285G","EPOCH":"2026-03-04T15:02:20.273856","MEAN_MOTION":13.29331029,"ECCENTRICITY":1.46e-6,"INCLINATION":50.0115,"RA_OF_ASC_NODE":160.8396,"ARG_OF_PERICENTER":327.3449,"MEAN_ANOMALY":32.7423,"EPHEMERIS_TYPE":0,"CLASSIFICATION_TYPE":"U","NORAD_CAT_ID":66921,"ELEMENT_SET_NO":999,"REV_AT_EPOCH":1215,"BSTAR":7.7502525e-5,"MEAN_MOTION_DOT":-8.8e-7,"MEAN_MOTION_DDOT":0},{"OBJECT_NAME":"HULIANWANG DIGUI-112","OBJECT_ID":"2025-285H","EPOCH":"2026-03-04T14:50:18.653280","MEAN_MOTION":13.2933149,"ECCENTRICITY":4.42e-6,"INCLINATION":50.0079,"RA_OF_ASC_NODE":160.7687,"ARG_OF_PERICENTER":337.1773,"MEAN_ANOMALY":22.9098,"EPHEMERIS_TYPE":0,"CLASSIFICATION_TYPE":"U","NORAD_CAT_ID":66922,"ELEMENT_SET_NO":999,"REV_AT_EPOCH":1215,"BSTAR":0.0001493481,"MEAN_MOTION_DOT":-5.5e-7,"MEAN_MOTION_DDOT":0}]
